DUBAISAT-1              
1 35682U 09041B   26165.24012253  .00000653  00000+0  10428-3 0  9998
2 35682  98.0048 298.5303 0011712  82.1198 278.1340 14.75118792904661
OCEANSAT-2              
1 35931U 09051A   26165.26862905 -.00000064  00000+0 -18183-4 0  9990
2 35931  98.2324 152.4112 0014981 244.8254 115.1359 13.99664790878922
WORLDVIEW-2 (WV-2)      
1 35946U 09055A   26165.31076908  .00000109  00000+0  50501-4 0  9994
2 35946  98.4736 238.7999 0003543 217.9821 142.1117 14.37898669875231
SMOS                    
1 36036U 09059A   26165.27071186  .00000221  00000+0  84346-4 0  9996
2 36036  98.4424 352.6484 0001322  89.5041 270.6299 14.39771182873037
YAOGAN-7                
1 36110U 09069A   26165.24540909  .00000452  00000+0  69609-4 0  9992
2 36110  98.0076  51.1305 0025720  50.8131 309.5358 14.78007241889194
TANDEM-X                
1 36605U 10030A   26164.37136316  .00000556  00000+0  29649-4 0  9992
2 36605  97.4453 172.1345 0001853  92.9116 267.2331 15.19145408886062
CARTOSAT-2B             
1 36795U 10035A   26165.29454041  .00000472  00000+0  71496-4 0  9991
2 36795  97.9959 215.8627 0010971 193.3863 166.7058 14.78657127859421
YAOGAN-10               
1 36834U 10038A   26165.32546631  .00002122  00000+0  25300-3 0  9995
2 36834  97.8978 188.7526 0001727  87.0029   4.8755 14.85343973856784
COSMO-SKYMED 4          
1 37216U 10060A   26165.27075590  .00000705  00000+0  95112-4 0  9994
2 37216  97.8882 348.9129 0001408  83.7124 276.4250 14.82151867844136
RESOURCESAT-2           
1 37387U 11015A   26165.27370308  .00000072  00000+0  53059-4 0  9990
2 37387  98.7644 232.7356 0010153 264.8640  95.1378 14.21605830785762
HAIYANG-2A              
1 37781U 11043A   26165.27211569  .00000131  00000+0  18463-3 0  9997
2 37781  99.3390 168.0125 0006192  95.7574 264.4282 13.74459380746255
RASAT                   
1 37791U 11044D   26165.25135869  .00000684  00000+0  12714-3 0  9991
2 37791  98.0577 256.6927 0019974 198.2612 246.9284 14.68164637792752
SRMSAT                  
1 37841U 11058D   26165.10596875  .00000361  00000+0  51961-4 0  9994
2 37841  19.9719  78.1172 0011859 169.7435 229.6321 14.11574987757388
PLEIADES 1A             
1 38012U 11076F   26165.25031398  .00000137  00000+0  39290-4 0  9997
2 38012  98.1982 240.3924 0001615  98.5977 354.1899 14.58568918771565
ZIYUAN 1-02C (ZY 1-02C) 
1 38038U 11079A   26165.29757057  .00000422  00000+0  15314-3 0  9996
2 38038  98.4079 232.6663 0005653 326.7926 120.1018 14.38212765758791
ARIRANG-3 (KOMPSAT-3)   
1 38338U 12025B   26165.22705368  .00000376  00000+0  83907-4 0  9994
2 38338  98.1176 122.7380 0006580 116.8521 243.3354 14.62203807750914
EXACTVIEW-1 (ADS-1B)    
1 38709U 12039C   26165.29174694  .00000081  00000+0  54332-4 0  9993
2 38709  98.9774 282.6166 0011008 174.5344 185.5957 14.24983754722291
SPOT 6                  
1 38755U 12047A   26165.31657481  .00000218  00000+0  56826-4 0  9998
2 38755  98.2126 232.6589 0001483  92.8784 267.2585 14.58561304732630
PLEIADES 1B             
1 39019U 12068A   26165.26688615  .00000229  00000+0  59012-4 0  9994
2 39019  98.1952 240.3584 0001647  94.3139 265.8249 14.58558817720424
GOKTURK 2               
1 39030U 12073A   26165.30045906  .00000177  00000+0  32873-4 0  9996
2 39030  97.6821   2.8771 0001698  58.4432 301.6943 14.75538945724083
LANDSAT 8               
1 39084U 13008A   26165.27791958  .00000278  00000+0  71804-4 0  9994
2 39084  98.2302 235.4476 0001366  93.5135 266.6220 14.57092712697478
SARAL                   
1 39086U 13009A   26165.24768448  .00000087  00000+0  47881-4 0  9998
2 39086  98.5556 351.8522 0000845 326.7540  33.3591 14.32855281695188
GAOFEN-1                
1 39150U 13018A   26165.28455079  .00000318  00000+0  52841-4 0  9996
2 39150  97.9101 237.4112 0015725 276.6484  83.2936 14.76532671707810
VNREDSAT 1              
1 39160U 13021B   26165.28842334  .00000465  00000+0  95474-4 0  9997
2 39160  97.9086 218.8158 0001685  89.7889 270.3507 14.64854146699867
ARIRANG-5 (KOMPSAT-5)   
1 39227U 13042A   26165.30619543  .00001177  00000+0  88439-4 0  9995
2 39227  97.6207 352.0477 0005181 127.4684 232.7014 15.04483945703429
SKYSAT-A                
1 39418U 13066C   26165.08275167  .00003310  00000+0  19046-3 0  9996
2 39418  97.3817 214.5787 0020374 328.8649  31.1373 15.12960772688013
DUBAISAT-2              
1 39419U 13066D   26165.22164003  .00003732  00000+0  23208-3 0  9992
2 39419  97.4559 155.4429 0012688  50.4451 309.7897 15.10164407685945
GPM-CORE                
1 39574U 14009C   26165.23097577  .00011430  00000+0  24954-3 0  9997
2 39574  64.9721 318.0269 0011969 250.4976 109.4872 15.44512530697358
SENTINEL-1A             
1 39634U 14016A   26165.28178212 -.00000368  00000+0 -68435-4 0  9996
2 39634  98.1775 172.8568 0001421  81.7344 278.4017 14.59198370649595
KAZEOSAT 1              
1 39731U 14024A   26165.31569275  .00000052  00000+0  28927-4 0  9990
2 39731  98.3212 237.8341 0001381  74.4269 285.7073 14.42078645638148
