OBJECT_NAME,OBJECT_ID,EPOCH,MEAN_MOTION,ECCENTRICITY,INCLINATION,RA_OF_ASC_NODE,ARG_OF_PERICENTER,MEAN_ANOMALY,EPHEMERIS_TYPE,CLASSIFICATION_TYPE,NORAD_CAT_ID,ELEMENT_SET_NO,REV_AT_EPOCH,BSTAR,MEAN_MOTION_DOT,MEAN_MOTION_DDOT
DUBAISAT-1,2009-041B,2026-06-14T05:45:46.586592,14.75118792,.00117128,98.0048,298.5303,82.1198,278.1340,0,U,35682,999,90466,.10428085E-3,.653E-5,0
OCEANSAT-2,2009-051A,2026-06-14T06:26:49.549920,13.99664790,.00149817,98.2324,152.4112,244.8254,115.1359,0,U,35931,999,87892,-.18183093E-4,-.64E-6,0
WORLDVIEW-2 (WV-2),2009-055A,2026-06-14T07:27:30.448512,14.37898669,.00035431,98.4736,238.7999,217.9821,142.1117,0,U,35946,999,87523,.50501174E-4,.109E-5,0
SMOS,2009-059A,2026-06-14T06:29:49.504704,14.39771182,.0001322,98.4424,352.6484,89.5041,270.6299,0,U,36036,999,87303,.84345901E-4,.221E-5,0
YAOGAN-7,2009-069A,2026-06-14T05:53:23.345376,14.78007241,.00257201,98.0076,51.1305,50.8131,309.5358,0,U,36110,999,88919,.69609191E-4,.452E-5,0
TANDEM-X,2010-030A,2026-06-13T08:54:45.777024,15.19145408,.0001853,97.4453,172.1345,92.9116,267.2331,0,U,36605,999,88606,.29649083E-4,.556E-5,0
CARTOSAT-2B,2010-035A,2026-06-14T07:04:08.291424,14.78657127,.00109714,97.9959,215.8627,193.3863,166.7058,0,U,36795,999,85942,.71495934E-4,.472E-5,0
YAOGAN-10,2010-038A,2026-06-14T07:48:40.289184,14.85343973,.00017278,97.8978,188.7526,87.0029,4.8755,0,U,36834,999,85678,.25299808E-3,.2122E-4,0
COSMO-SKYMED 4,2010-060A,2026-06-14T06:29:53.309760,14.82151867,.00014081,97.8882,348.9129,83.7124,276.4250,0,U,37216,999,84413,.95112238E-4,.705E-5,0
RESOURCESAT-2,2011-015A,2026-06-14T06:34:07.946112,14.21605830,.00101536,98.7644,232.7356,264.8640,95.1378,0,U,37387,999,78576,.53058845E-4,.72E-6,0
HAIYANG-2A,2011-043A,2026-06-14T06:31:50.795616,13.74459380,.00061928,99.3390,168.0125,95.7574,264.4282,0,U,37781,999,74625,.18463352E-3,.131E-5,0
RASAT,2011-044D,2026-06-14T06:01:57.390816,14.68164637,.00199747,98.0577,256.6927,198.2612,246.9284,0,U,37791,999,79275,.12713677E-3,.684E-5,0
SRMSAT,2011-058D,2026-06-14T02:32:35.700000,14.11574987,.00118592,19.9719,78.1172,169.7435,229.6321,0,U,37841,999,75738,.51960943E-4,.361E-5,0
PLEIADES 1A,2011-076F,2026-06-14T06:00:27.127872,14.58568918,.00016151,98.1982,240.3924,98.5977,354.1899,0,U,38012,999,77156,.39290136E-4,.137E-5,0
ZIYUAN 1-02C (ZY 1-02C),2011-079A,2026-06-14T07:08:30.097248,14.38212765,.00056537,98.4079,232.6663,326.7926,120.1018,0,U,38038,999,75879,.15314047E-3,.422E-5,0
ARIRANG-3 (KOMPSAT-3),2012-025B,2026-06-14T05:26:57.437952,14.62203807,.00065801,98.1176,122.7380,116.8521,243.3354,0,U,38338,999,75091,.83906773E-4,.376E-5,0
EXACTVIEW-1 (ADS-1B),2012-039C,2026-06-14T07:00:06.935616,14.24983754,.00110083,98.9774,282.6166,174.5344,185.5957,0,U,38709,999,72229,.54331636E-4,.81E-6,0
SPOT 6,2012-047A,2026-06-14T07:35:52.063584,14.58561304,.00014838,98.2126,232.6589,92.8784,267.2585,0,U,38755,999,73263,.56826473E-4,.218E-5,0
PLEIADES 1B,2012-068A,2026-06-14T06:24:18.963360,14.58558817,.0001647,98.1952,240.3584,94.3139,265.8249,0,U,39019,999,72042,.5901168E-4,.229E-5,0
GOKTURK 2,2012-073A,2026-06-14T07:12:39.662784,14.75538945,.0001698,97.6821,2.8771,58.4432,301.6943,0,U,39030,999,72408,.32873176E-4,.177E-5,0
LANDSAT 8,2013-008A,2026-06-14T06:40:12.251712,14.57092712,.00013667,98.2302,235.4476,93.5135,266.6220,0,U,39084,999,69747,.71803832E-4,.278E-5,0
SARAL,2013-009A,2026-06-14T05:56:39.939072,14.32855281,.0000845,98.5556,351.8522,326.7540,33.3591,0,U,39086,999,69518,.47881469E-4,.87E-6,0
GAOFEN-1,2013-018A,2026-06-14T06:49:45.188256,14.76532671,.00157251,97.9101,237.4112,276.6484,83.2936,0,U,39150,999,70781,.52841066E-4,.318E-5,0
VNREDSAT 1,2013-021B,2026-06-14T06:55:19.776576,14.64854146,.00016856,97.9086,218.8158,89.7889,270.3507,0,U,39160,999,69986,.95474411E-4,.465E-5,0
ARIRANG-5 (KOMPSAT-5),2013-042A,2026-06-14T07:20:55.285152,15.04483945,.0005181,97.6207,352.0477,127.4684,232.7014,0,U,39227,999,70342,.88439162E-4,.1177E-4,0
SKYSAT-A,2013-066C,2026-06-14T01:59:09.744288,15.12960772,.00203747,97.3817,214.5787,328.8649,31.1373,0,U,39418,999,68801,.19045624E-3,.331E-4,0
DUBAISAT-2,2013-066D,2026-06-14T05:19:09.698592,15.10164407,.0012688,97.4559,155.4429,50.4451,309.7897,0,U,39419,999,68594,.23208457E-3,.3732E-4,0
GPM-CORE,2014-009C,2026-06-14T05:32:36.306528,15.44512530,.00119695,64.9721,318.0269,250.4976,109.4872,0,U,39574,999,69735,.24954359E-3,.1143E-3,0
SENTINEL-1A,2014-016A,2026-06-14T06:45:45.975168,14.59198370,.00014214,98.1775,172.8568,81.7344,278.4017,0,U,39634,999,64959,-.68435474E-4,-.368E-5,0
KAZEOSAT 1,2014-024A,2026-06-14T07:34:35.853600,14.42078645,.00013819,98.3212,237.8341,74.4269,285.7073,0,U,39731,999,63814,.28927468E-4,.52E-6,0
